[{"OBJECT_NAME":"STARLINK-5625","OBJECT_ID":"2023-013AP","EPOCH":"2026-03-09T22:00:01.999584","MEAN_MOTION":15.08971746,"ECCENTRICITY":8.76e-5,"INCLINATION":43.0004,"RA_OF_ASC_NODE":285.7842,"ARG_OF_PERICENTER":296.563,"MEAN_ANOMALY":190.1324,"EPHEMERIS_TYPE":0,"CLASSIFICATION_TYPE":"U","NORAD_CAT_ID":55368,"ELEMENT_SET_NO":999,"REV_AT_EPOCH":578,"BSTAR":0.0028935289,"MEAN_MOTION_DOT":0.00046586,"MEAN_MOTION_DDOT":0},{"OBJECT_NAME":"FENGYUN 1C DEB","OBJECT_ID":"1999-025BLM","EPOCH":"2026-03-08T05:01:42.980736","MEAN_MOTION":14.80168873,"ECCENTRICITY":0.01365523,"INCLINATION":98.865,"RA_OF_ASC_NODE":239.8189,"ARG_OF_PERICENTER":197.7839,"MEAN_ANOMALY":161.8566,"EPHEMERIS_TYPE":0,"CLASSIFICATION_TYPE":"U","NORAD_CAT_ID":31231,"ELEMENT_SET_NO":999,"REV_AT_EPOCH":64283,"BSTAR":0.0066268112,"MEAN_MOTION_DOT":0.00059401,"MEAN_MOTION_DDOT":0}]
